[Satellite]
VERSION=1.1
NAME=PROMETHEUS 2-3
NICKNAME=PROMETHEUS 2-3
TLE1=1 41855U 16067H   22342.33162354  .00007639  00000+0  59870-3 0  9999
TLE2=2 41855  98.0358 119.4783 0013689 145.3367 214.8751 15.01211728331819
STATUS=0
